{"type": "FeatureCollection", "features": [{"type": "Feature", "properties": {"category": "tee", "tee": "black", "ref": 2, "source": "manual"}, "geometry": {"type": "Polygon", "coordinates": [[[-122.4118297187925, 37.60343450176477], [-122.41176439785471, 37.60337221670523], [-122.41186008118129, 37.60330869823238], [-122.4119254021447, 37.60337098323983], [-122.4118297187925, 37.60343450176477]]]}}, {"type": "Feature", "properties": {"category": "tee", "tee": "black", "ref": 5, "source": "manual"}, "geometry": {"type": "Polygon", "coordinates": [[[-122.41264013396726, 37.601838166397265], [-122.41253852874172, 37.6018314371935], [-122.41254886609697, 37.601732633585144], [-122.4126504711893, 37.601739362779], [-122.41264013396726, 37.601838166397265]]]}}, {"type": "Feature", "properties": {"category": "tee", "tee": "black", "ref": 6, "source": "manual"}, "geometry": {"type": "Polygon", "coordinates": [[[-122.4121794052039, 37.60533909985978], [-122.41212728640204, 37.60526937947868], [-122.41223439475124, 37.60521870013281], [-122.41228651361895, 37.60528842046775], [-122.4121794052039, 37.60533909985978]]]}}, {"type": "Feature", "properties": {"category": "tee", "tee": "black", "ref": 17, "source": "manual"}, "geometry": {"type": "Polygon", "coordinates": [[[-122.40689695984045, 37.60177811845052], [-122.40687862140615, 37.601857914363286], [-122.40675604010151, 37.60184008150673], [-122.40677437866186, 37.601760285613835], [-122.40689695984045, 37.60177811845052]]]}}, {"type": "Feature", "properties": {"category": "tee", "tee": "black", "ref": 18, "source": "manual"}, "geometry": {"type": "Polygon", "coordinates": [[[-122.41196525719963, 37.60210932278403], [-122.41189980075845, 37.602047128593526], [-122.41199534277435, 37.60198347721315], [-122.41206079924072, 37.60204567135153], [-122.41196525719963, 37.60210932278403]]]}}]}