{"type": "FeatureCollection", "features": [{"type": "Feature", "properties": {"category": "fairway", "source": "aerial"}, "geometry": {"type": "Polygon", "coordinates": [[[-122.40785944685418, 37.60647812027898], [-122.40794736791516, 37.60636319013581], [-122.40783256653098, 37.60621032407426], [-122.40779174406394, 37.60623780833194], [-122.4077397963835, 37.60620524368597], [-122.4077463651792, 37.606108364789144], [-122.40782826606188, 37.60602109361859], [-122.40770120599979, 37.60595123322487], [-122.40764885601205, 37.60596942987721], [-122.40763105224757, 37.60602010387053], [-122.40750322368937, 37.606047151270936], [-122.40747969260642, 37.60608856678456], [-122.40758902204843, 37.606199872066455], [-122.40768627524608, 37.60637110969143], [-122.40785944685418, 37.60647812027898]]]}}, {"type": "Feature", "properties": {"category": "fairway", "source": "aerial"}, "geometry": {"type": "Polygon", "coordinates": [[[-122.40862644837173, 37.607044978013874], [-122.40874271381128, 37.6070132566236], [-122.40881874101967, 37.606935185050816], [-122.40915648289653, 37.606770741861325], [-122.40923185245757, 37.60677573403278], [-122.40925556527914, 37.606711244829214], [-122.40933133620035, 37.606665475590304], [-122.40959312281329, 37.60656987370762], [-122.4096573654345, 37.606514816880235], [-122.40972120681644, 37.60651052136863], [-122.4097912861981, 37.60645087881063], [-122.40990164042121, 37.60643297125962], [-122.41004176219238, 37.6063183005497], [-122.41020464797582, 37.606259121652215], [-122.4102283597901, 37.606194632239074], [-122.41030945641204, 37.60620888204397], [-122.41035658836213, 37.606116820520434], [-122.41041470180089, 37.60610326631036], [-122.41045508617862, 37.606131157167255], [-122.41046701480437, 37.60608968309588], [-122.4106359186313, 37.60600284455267], [-122.41065415727104, 37.60589679405362], [-122.41069483288301, 37.6058877674723], [-122.41072350723351, 37.605929444317695], [-122.41079387647625, 37.60583288378922], [-122.41084618922298, 37.60581930040384], [-122.41085800839036, 37.60579167029806], [-122.41080613246217, 37.60574987765105], [-122.41082962520213, 37.60571307612517], [-122.41100896412885, 37.60577396438645], [-122.41104387562764, 37.605760294064666], [-122.41096325241432, 37.60568605405628], [-122.41110275267603, 37.605649831439166], [-122.41111511742749, 37.60555298125246], [-122.41120190478138, 37.60558110339542], [-122.41122459705345, 37.60564582453452], [-122.41130580238628, 37.60564622964169], [-122.41133516795993, 37.60560022760546], [-122.41123681615501, 37.60556743301505], [-122.41116199332272, 37.60549322207752], [-122.41099316403347, 37.6055708320558], [-122.41089477602706, 37.60554265185187], [-122.41084177193488, 37.605643913990995], [-122.41077873217755, 37.60554668737753], [-122.41074363871503, 37.60558343097149], [-122.41067396139417, 37.60559231274885], [-122.41058721064424, 37.60555957554943], [-122.41053460670436, 37.605610076179694], [-122.41048849503875, 37.60557292703604], [-122.41040656131368, 37.60566481475951], [-122.41051622230029, 37.60573458534304], [-122.41057995373059, 37.60574413336919], [-122.41076020258713, 37.60568965526328], [-122.4107830401116, 37.605735917803855], [-122.41065524954588, 37.60575835396386], [-122.4105794439384, 37.6058087387441], [-122.41052731323722, 37.60579924866309], [-122.41043410631508, 37.605849546429376], [-122.41043377850939, 37.605891078454356], [-122.41036957342438, 37.605941521050234], [-122.4102885863757, 37.60591342728052], [-122.41004373035452, 37.60606910843109], [-122.41000925592374, 37.60602740242621], [-122.40996861660759, 37.606031814100746], [-122.40993881257877, 37.60613319181117], [-122.40965364388035, 37.60625175176606], [-122.40963011391804, 37.6062931677166], [-122.40940889489549, 37.606393587565194], [-122.4090880820395, 37.60661810932029], [-122.40868679130176, 37.60674992996831], [-122.40865746017818, 37.606791316651716], [-122.40869134968686, 37.60690685771804], [-122.40864461706506, 37.60694815720462], [-122.40860992380034, 37.60693413880299], [-122.4085805560219, 37.60698014013205], [-122.40862644837173, 37.607044978013874]]]}}, {"type": "Feature", "properties": {"category": "fairway", "source": "aerial"}, "geometry": {"type": "Polygon", "coordinates": [[[-122.40944129015686, 37.60596456854272], [-122.40950527700028, 37.6059418144693], [-122.40952895283333, 37.60588193986614], [-122.40959283015513, 37.60587302975028], [-122.40966301844456, 37.60579954325135], [-122.40988430827493, 37.60568989356027], [-122.40991414864723, 37.6055839011859], [-122.40998969931846, 37.605565819518255], [-122.41001932080196, 37.605487515129774], [-122.41005995981878, 37.60548310343486], [-122.41012336299924, 37.60553418373066], [-122.4102340801368, 37.605470129158505], [-122.41029150090047, 37.605544253725874], [-122.41037890716522, 37.605493927087664], [-122.41041334513794, 37.60554024765767], [-122.41047780478262, 37.60545750234287], [-122.41034465137402, 37.605424533159066], [-122.41032206921861, 37.6053459678461], [-122.41046145988247, 37.6053235899918], [-122.41046773369784, 37.60526362825819], [-122.41051439142078, 37.60523155736047], [-122.41058403200952, 37.60522729034416], [-122.41061270604919, 37.605268967218464], [-122.41065950934635, 37.605218437582415], [-122.41069416580525, 37.60523707005224], [-122.41071171247043, 37.605218698262334], [-122.41065403667473, 37.605176876585205], [-122.4106832568333, 37.60514933339022], [-122.41077628070671, 37.60512210876399], [-122.41086314022205, 37.60514100181216], [-122.4109216531197, 37.605076685968285], [-122.41084059399836, 37.60505782192034], [-122.41082921171292, 37.60503007598384], [-122.41092839962774, 37.60495673348733], [-122.41085872291298, 37.60496561537985], [-122.4108127934691, 37.60490539300828], [-122.410725788626, 37.60490495860653], [-122.41056250566196, 37.605014899637936], [-122.41045211726802, 37.6050374225004], [-122.41034129167831, 37.60511532129869], [-122.41030659893516, 37.60510130339603], [-122.41029463395525, 37.6051473921286], [-122.41023655767562, 37.60515633161799], [-122.41016064308909, 37.60522056014637], [-122.41016020582185, 37.6052759361828], [-122.41000895931778, 37.60533055837321], [-122.41001439519206, 37.60537673406581], [-122.40984574729048, 37.60543126904952], [-122.40978734257862, 37.60548174033828], [-122.40975261330794, 37.60547233694226], [-122.40967093408345, 37.605531921466216], [-122.40966480548357, 37.60557342447303], [-122.40958356377888, 37.60557763290635], [-122.40957134294275, 37.60565602423981], [-122.4096174177251, 37.60569778840679], [-122.4095065902864, 37.60577568639684], [-122.40940236571531, 37.605752090597946], [-122.40940791069984, 37.605784422306336], [-122.409477296486, 37.6058124586292], [-122.40944803914034, 37.6058446161852], [-122.40940750935194, 37.60583518366132], [-122.40936646873118, 37.60589035648349], [-122.40944129015686, 37.60596456854272]]]}}, {"type": "Feature", "properties": {"category": "fairway", "source": "aerial"}, "geometry": {"type": "Polygon", "coordinates": [[[-122.41185379967226, 37.60529823320938], [-122.41184267131891, 37.60523818467059], [-122.41192416685723, 37.60520167197927], [-122.41193700273955, 37.60504483096248], [-122.4120072242767, 37.60496672836157], [-122.41197865854674, 37.60491120780397], [-122.41204887991323, 37.60483310517505], [-122.4120143685925, 37.60479601441419], [-122.41192678258989, 37.60486941564322], [-122.41185706973395, 37.60488291279842], [-122.41181603144375, 37.60493808650106], [-122.41189099970947, 37.604993838346324], [-122.41187312639002, 37.60505374235679], [-122.41173910087412, 37.60513152685355], [-122.41184923469443, 37.60514130548388], [-122.41185474436364, 37.605178251760364], [-122.41179039549414, 37.60524715383295], [-122.41185379967226, 37.60529823320938]]]}}, {"type": "Feature", "properties": {"category": "fairway", "source": "aerial"}, "geometry": {"type": "Polygon", "coordinates": [[[-122.41117835933291, 37.604888758112004], [-122.41121954355538, 37.604815125950765], [-122.41129502040519, 37.6048062727778], [-122.41133616810103, 37.604737255244544], [-122.41146990245923, 37.60469638856769], [-122.4114820847786, 37.60462261167803], [-122.41162089219415, 37.60467406717882], [-122.41162045601801, 37.60472944323493], [-122.41173704367527, 37.6046561867982], [-122.41174908036436, 37.60460086856433], [-122.41185417610548, 37.604513710168604], [-122.41199972831313, 37.60444521266564], [-122.41189579542103, 37.6043847016979], [-122.4119134869079, 37.60434787103507], [-122.41180886383935, 37.604375038756125], [-122.41175600718792, 37.60445784265668], [-122.41166940264257, 37.60440664756709], [-122.41161709103343, 37.604420231330245], [-122.41162241880126, 37.604480250978284], [-122.41157619822765, 37.604456946268414], [-122.41150648569706, 37.60447044322017], [-122.41127896511793, 37.60463544314525], [-122.41116281356548, 37.60465332307441], [-122.41115041266316, 37.60475478795355], [-122.4110398792886, 37.60479577005485], [-122.41101051385695, 37.604841772025004], [-122.41112648384392, 37.60484696560322], [-122.41117835933291, 37.604888758112004]]]}}, {"type": "Feature", "properties": {"category": "fairway", "source": "aerial"}, "geometry": {"type": "Polygon", "coordinates": [[[-122.40884571755728, 37.60499246791983], [-122.40892148696847, 37.60494669891812], [-122.40885261346492, 37.604854056908366], [-122.4089283827304, 37.60480828789993], [-122.40900532021026, 37.60461484942798], [-122.40905785145274, 37.604573578812364], [-122.40903497883946, 37.604531930610236], [-122.40911778903141, 37.60432929175697], [-122.40905427803953, 37.604292054933595], [-122.40900762028964, 37.60432412525879], [-122.40905365743613, 37.604370504315106], [-122.4089355705739, 37.60463295952468], [-122.4087607580412, 37.60473361061213], [-122.4086338088648, 37.60464990721171], [-122.40869841579962, 37.60454870419056], [-122.40858751606444, 37.60463583067676], [-122.40860436894926, 37.60470513790988], [-122.40867929802931, 37.60476550644415], [-122.40867889620104, 37.60481626780125], [-122.40877155512594, 37.60483519144501], [-122.40874196913252, 37.60490888085125], [-122.40878811603817, 37.60494141600187], [-122.40885195611781, 37.60493712094839], [-122.40884571755728, 37.60499246791983]]]}}, {"type": "Feature", "properties": {"category": "fairway", "source": "aerial"}, "geometry": {"type": "Polygon", "coordinates": [[[-122.4090146572492, 37.60490101700696], [-122.40959786251946, 37.604502443956285], [-122.41026704541245, 37.6042335135173], [-122.41023815335996, 37.60421952458021], [-122.41000534076484, 37.60431988766871], [-122.4098426413636, 37.604355992994286], [-122.40958644430575, 37.604479312571776], [-122.40902662297563, 37.6048549284086], [-122.4090146572492, 37.60490101700696]]]}}, {"type": "Feature", "properties": {"category": "fairway", "source": "aerial"}, "geometry": {"type": "Polygon", "coordinates": [[[-122.40838137701354, 37.60649458250042], [-122.40844591282487, 37.60640260900017], [-122.40835927179208, 37.6063560261657], [-122.4083713478197, 37.60629609364837], [-122.40849903033171, 37.606287503979736], [-122.40854576261498, 37.60624620454336], [-122.40852278016477, 37.606218400254576], [-122.40855813078738, 37.60614935466325], [-122.40866903282726, 37.60606222824629], [-122.40864046918134, 37.6060067069084], [-122.40870427364982, 37.606007026611245], [-122.40883305128973, 37.60585999653558], [-122.40878719599826, 37.60579054405763], [-122.40886256454327, 37.60579553645718], [-122.40892677050822, 37.60574509468751], [-122.40903818263904, 37.60559336255083], [-122.40903858423442, 37.60554260119713], [-122.40927844308166, 37.605285370371995], [-122.40931973886448, 37.60519789488932], [-122.40944245817153, 37.60508313775931], [-122.40949466118961, 37.60508339897675], [-122.4097219682482, 37.604946090566635], [-122.409849611857, 37.604942114083556], [-122.40994869125012, 37.604882616425904], [-122.4100123489831, 37.60490139409286], [-122.41013488454291, 37.60480970957388], [-122.41011817597628, 37.60472194386806], [-122.41033347949957, 37.604635337641334], [-122.41033380734619, 37.604593805608246], [-122.41039804770786, 37.60453874834029], [-122.41048501570133, 37.604543797650614], [-122.41047972526245, 37.60447916328898], [-122.41056723938455, 37.60441499247863], [-122.41061353243205, 37.60442906823952], [-122.41067189935234, 37.604383211192015], [-122.41074128432828, 37.60441124677138], [-122.410828652562, 37.604365534447574], [-122.41086425492199, 37.60426418542114], [-122.41081259842342, 37.604194704748664], [-122.41086538313712, 37.60412113061658], [-122.41067992037571, 37.604101745230246], [-122.41055742306332, 37.60418881567072], [-122.41046447311682, 37.60420681079634], [-122.4104175610665, 37.604271184379975], [-122.41043386926185, 37.6044097114289], [-122.41037604854425, 37.604386348299116], [-122.41032931844062, 37.604427648491665], [-122.41019014803096, 37.60442233818488], [-122.41010263357997, 37.60448650871271], [-122.41005634059597, 37.60447243275206], [-122.40996882597209, 37.604536603178644], [-122.40982341759198, 37.604586639478676], [-122.40968909907897, 37.60470133900077], [-122.40961373157471, 37.604696347137065], [-122.40942129994956, 37.60482460017349], [-122.40935165967933, 37.604828866506544], [-122.40932805702944, 37.60487951174781], [-122.40920606783735, 37.60490197538131], [-122.40891393389393, 37.605168173970135], [-122.40879650266524, 37.605347564957476], [-122.40881933886664, 37.60539382786955], [-122.40874951540411, 37.60542116718419], [-122.40877238812314, 37.60546281543635], [-122.40874294798115, 37.60551804615964], [-122.4086965815644, 37.6055131990014], [-122.40867987454418, 37.605425433115336], [-122.40861537641436, 37.60551279210011], [-122.40863821255225, 37.605559055045404], [-122.40858024537548, 37.605554149710194], [-122.40854522391498, 37.60558166330494], [-122.40855645927635, 37.605627868124984], [-122.4086146091832, 37.60560970013168], [-122.40863759148358, 37.60563750440412], [-122.40859071349003, 37.60569726255697], [-122.40852679966609, 37.60571078679891], [-122.40854974542508, 37.60574320575596], [-122.40849104725702, 37.605830593734126], [-122.40842713330136, 37.605844117920654], [-122.4084207481525, 37.60591792352879], [-122.40832739347245, 37.6059866782874], [-122.40827960110387, 37.606161802996176], [-122.40831334353643, 37.606295802845324], [-122.408260335412, 37.60639706377792], [-122.40832395743996, 37.60642045702539], [-122.40838137701354, 37.60649458250042]]]}}, {"type": "Feature", "properties": {"category": "fairway", "source": "aerial"}, "geometry": {"type": "Polygon", "coordinates": [[[-122.40933090321404, 37.60451956753143], [-122.409394961817, 37.60448758416278], [-122.40945869203408, 37.60449713278625], [-122.40972648992168, 37.604373871511385], [-122.40976161976664, 37.60433251354174], [-122.40983129601165, 37.604323632292136], [-122.4099481034656, 37.60422268960552], [-122.41009362037742, 37.60415880913058], [-122.41013469593504, 37.60409902135621], [-122.41042558303032, 37.603989718438164], [-122.410443420822, 37.603934429314776], [-122.41036830900445, 37.60389713524182], [-122.41036852755023, 37.603869447216155], [-122.41044411279536, 37.603846750565744], [-122.41048456880971, 37.60386541207087], [-122.41052549823377, 37.60382408283797], [-122.41063541150824, 37.603861550612606], [-122.41066484958803, 37.60380631938438], [-122.41059528314948, 37.60380135711824], [-122.41058970137551, 37.603773640122924], [-122.41064215833991, 37.60374159812634], [-122.41071154271171, 37.6037696337211], [-122.41076385402299, 37.603756050355386], [-122.41082805694641, 37.60370560750823], [-122.41082867567158, 37.60362715809279], [-122.41077672844965, 37.60359459477346], [-122.41074174511874, 37.60361749437231], [-122.41077023664504, 37.603682244572376], [-122.41064824982678, 37.603704709721384], [-122.41052695480766, 37.60363949599018], [-122.41040533220661, 37.60361581417619], [-122.41034131120715, 37.60364318343686], [-122.41032905508227, 37.60372618955486], [-122.41021308690019, 37.603720995207205], [-122.41010802683168, 37.6038035374756], [-122.40985208730487, 37.60389455496701], [-122.4098169577188, 37.60393591296881], [-122.40971835352748, 37.6039354198207], [-122.40967738713164, 37.60398136343888], [-122.40953785285225, 37.60402219907196], [-122.40946781205494, 37.60407722685147], [-122.40946741077242, 37.60412798822173], [-122.40939769818526, 37.604141483927904], [-122.40937964065542, 37.60422446090352], [-122.40930405471225, 37.60424715686474], [-122.40932065275318, 37.60434876669302], [-122.40919895640516, 37.60433431297137], [-122.40919202470218, 37.60447733869057], [-122.40933090321404, 37.60451956753143]]]}}, {"type": "Feature", "properties": {"category": "fairway", "source": "aerial"}, "geometry": {"type": "Polygon", "coordinates": [[[-122.4124177408817, 37.6051349076768], [-122.41249361716415, 37.60507529235021], [-122.4125527092694, 37.604937140934496], [-122.41265135111789, 37.604933017053575], [-122.41276424587645, 37.60385370325322], [-122.41272987975704, 37.60379815400437], [-122.4127706628089, 37.603775282673624], [-122.41278940567832, 37.60360462635055], [-122.41274285877755, 37.60362285415403], [-122.41274198812047, 37.60373360630781], [-122.41263200138224, 37.603705369832994], [-122.41252118003335, 37.60378327073178], [-122.41259031115484, 37.60384360793768], [-122.41257243868229, 37.60390351207277], [-122.41263591484115, 37.60394536168999], [-122.41261242355385, 37.60398216359863], [-122.41264639054647, 37.60408847427955], [-122.41261046410825, 37.60423135592066], [-122.41250547852079, 37.604304670987716], [-122.4124990975506, 37.60437847687083], [-122.41255688265021, 37.60440645363834], [-122.41254393932373, 37.604577138768], [-122.41243873539672, 37.60467814179923], [-122.41239236924142, 37.60467329609475], [-122.41235136776426, 37.604723855317836], [-122.4123049289752, 37.60472823892266], [-122.41226943725886, 37.60481574437504], [-122.41234389749508, 37.604936101340215], [-122.41234338924328, 37.60500070674448], [-122.41229658721471, 37.60505123706097], [-122.4124177408817, 37.6051349076768]]]}}, {"type": "Feature", "properties": {"category": "fairway", "source": "aerial"}, "geometry": {"type": "Polygon", "coordinates": [[[-122.41135376882029, 37.603975892328975], [-122.41155797720066, 37.60382462055863], [-122.41148939226143, 37.603695062675065], [-122.41140764364872, 37.60376387779091], [-122.41137287860138, 37.603759089545896], [-122.41137404218384, 37.60361142004399], [-122.41128725704199, 37.60358329803702], [-122.41101319130877, 37.603766524699374], [-122.41105372018835, 37.60377595666731], [-122.41125209202414, 37.60362927114805], [-122.4113159308575, 37.603624974750026], [-122.41133267696999, 37.60370812564047], [-122.41129754828685, 37.60374948409199], [-122.41133782264463, 37.603791218665364], [-122.41130842143245, 37.603841835394114], [-122.4113487685729, 37.60387434062009], [-122.41135376882029, 37.603975892328975]]]}}, {"type": "Feature", "properties": {"category": "fairway", "source": "aerial"}, "geometry": {"type": "Polygon", "coordinates": [[[-122.40744050453523, 37.603716336347404], [-122.40750481944679, 37.603652051320495], [-122.40748774819761, 37.60361043194132], [-122.40754611636969, 37.60356457644429], [-122.407367517799, 37.6034113895913], [-122.40728649802341, 37.60338790845101], [-122.40715239756855, 37.60347491708265], [-122.40708290495283, 37.60346072341325], [-122.40711712020041, 37.60353473294679], [-122.40718070281542, 37.603562741466696], [-122.4072330512199, 37.60354454500126], [-122.40744050453523, 37.603716336347404]]]}}, {"type": "Feature", "properties": {"category": "fairway", "source": "aerial"}, "geometry": {"type": "Polygon", "coordinates": [[[-122.40850215589194, 37.604427734537424], [-122.40867127735997, 37.604313210754455], [-122.40871749692371, 37.6043365165942], [-122.40878742894603, 37.6042953332771], [-122.40883368505528, 37.6043140244023], [-122.40886896143213, 37.60425420802436], [-122.40894399981936, 37.60430073238493], [-122.40899051154176, 37.60428712076282], [-122.40901393168483, 37.604259548932006], [-122.40896774858564, 37.60423162853818], [-122.40906091794079, 37.60418594657718], [-122.40905595730716, 37.604079780131315], [-122.40913737990944, 37.60405249869769], [-122.40916612569275, 37.60408494658154], [-122.4090951719818, 37.60425534087801], [-122.40914733791791, 37.60426021691386], [-122.40929508151933, 37.60391484256825], [-122.40933130603085, 37.6037350446197], [-122.40938941779012, 37.60372149089496], [-122.40944705527565, 37.603767927855195], [-122.4095110402267, 37.60374517375425], [-122.40956856838592, 37.603805454666734], [-122.40965600954847, 37.60375051386563], [-122.40965053753243, 37.60370895281719], [-122.40956980848355, 37.60364855587304], [-122.40969230603905, 37.60356148645201], [-122.40966943337273, 37.603519838365344], [-122.40970438051716, 37.60350155375709], [-122.40974461738335, 37.60354790353795], [-122.40990720570801, 37.60352564234063], [-122.40991369850855, 37.60343799259533], [-122.40985011495465, 37.60340998553953], [-122.40986226218998, 37.603340823483755], [-122.40977555086545, 37.603303471029434], [-122.40969383758843, 37.603367670282125], [-122.40970481809431, 37.60344617770853], [-122.40965239741055, 37.60347360461774], [-122.40956561309319, 37.60344548135088], [-122.40957072031391, 37.60353318911028], [-122.40945424176941, 37.603592599406376], [-122.40938478507364, 37.6035737924177], [-122.40944337095057, 37.60350024794924], [-122.40944369927864, 37.60345871591481], [-122.40939744354031, 37.603440025029194], [-122.40930978362154, 37.603522653665216], [-122.40933265608723, 37.60356430181986], [-122.40923208170973, 37.603813000459525], [-122.4091916625391, 37.60378972385771], [-122.40922110165253, 37.60373449299775], [-122.40913490120369, 37.6036325346924], [-122.4090711717665, 37.6036229858993], [-122.40901287748987, 37.603659612817715], [-122.40901834914749, 37.60370117389302], [-122.40906471446363, 37.60370602091699], [-122.40908182311918, 37.603743025405024], [-122.40894772408508, 37.60383003608384], [-122.40906329077812, 37.60388599304418], [-122.40890617304323, 37.60394981414709], [-122.4088939883019, 37.60402359075859], [-122.4089747902207, 37.604074758820765], [-122.40897453464606, 37.604107061508124], [-122.40888103668912, 37.604194275427254], [-122.40879392313862, 37.6042076836165], [-122.40875375956557, 37.604152104179875], [-122.40871293856817, 37.604179588778194], [-122.40867255589428, 37.60415169733038], [-122.40855023887256, 37.60421569232014], [-122.4084400703446, 37.604210525293794], [-122.40847439690103, 37.60427069043165], [-122.40856121828783, 37.60429419983256], [-122.40846206550657, 37.60436292566646], [-122.40850215589194, 37.604427734537424]]]}}, {"type": "Feature", "properties": {"category": "fairway", "source": "aerial"}, "geometry": {"type": "Polygon", "coordinates": [[[-122.40815349379835, 37.60377529234327], [-122.40824732106144, 37.603646546973025], [-122.40823601306197, 37.60360957145102], [-122.40791886632768, 37.603372623282525], [-122.4078672131914, 37.6033031413388], [-122.40770557606965, 37.6032054183259], [-122.40760095312638, 37.60323258232229], [-122.40755983944136, 37.60329698387941], [-122.40773891375963, 37.603390179746796], [-122.40777320279643, 37.60345495975806], [-122.40802672976886, 37.60366851494988], [-122.40807882208871, 37.603682620792824], [-122.40815349379835, 37.60377529234327]]]}}, {"type": "Feature", "properties": {"category": "fairway", "source": "aerial"}, "geometry": {"type": "Polygon", "coordinates": [[[-122.41232774746504, 37.60330236290027], [-122.41246720632574, 37.60327075328568], [-122.4123687118651, 37.603256418339896], [-122.41239811212665, 37.60320580133398], [-122.4124385682931, 37.60322446217248], [-122.41249682427826, 37.60319244821539], [-122.4126361014479, 37.60318391176501], [-122.41276914309609, 37.60323072237104], [-122.41282743521818, 37.60319409357614], [-122.41270570374256, 37.6031842581515], [-122.41266035438328, 37.60305020170179], [-122.4125854600405, 37.602985220991584], [-122.41232314525486, 37.60315004980596], [-122.41229889168198, 37.60328375979226], [-122.41232774746504, 37.60330236290027]]]}}, {"type": "Feature", "properties": {"category": "fairway", "source": "aerial"}, "geometry": {"type": "Polygon", "coordinates": [[[-122.40698430143743, 37.60346022798617], [-122.40701968876691, 37.603386568155955], [-122.40697369012538, 37.603335573645836], [-122.40690401448647, 37.60334445321468], [-122.40691014441884, 37.6033029503471], [-122.40672578424959, 37.60314511871524], [-122.40665074841404, 37.603098592956755], [-122.40660420036482, 37.60311681833052], [-122.40657538275453, 37.603093599166755], [-122.40663378772639, 37.60304312944982], [-122.40671455037572, 37.60309891371434], [-122.40674942473979, 37.60308985932139], [-122.40663995443516, 37.60299701192669], [-122.40670404950573, 37.60296041534059], [-122.40669259577103, 37.60294189834829], [-122.40664046758252, 37.60293240656689], [-122.4066053366908, 37.60297376360814], [-122.40650724708877, 37.602908662429], [-122.406518517468, 37.60295025278132], [-122.40645420232721, 37.60301453727626], [-122.40628698758634, 37.60288909515548], [-122.40621767908213, 37.6028518276397], [-122.40618853156431, 37.602870140396824], [-122.40623401588523, 37.60298574056517], [-122.40627465374504, 37.60298133016222], [-122.4064244681333, 37.60310668478397], [-122.40648841675106, 37.60308854699064], [-122.4064880134584, 37.60313930834207], [-122.40653430492843, 37.60315338569291], [-122.40655126556595, 37.60320884921269], [-122.40662685126698, 37.60318615500882], [-122.40673606529393, 37.60331130509356], [-122.4067997575063, 37.60332546981179], [-122.40698430143743, 37.60346022798617]]]}}, {"type": "Feature", "properties": {"category": "fairway", "source": "aerial"}, "geometry": {"type": "Polygon", "coordinates": [[[-122.40684074680166, 37.60473782056295], [-122.40684111323462, 37.604691673889434], [-122.40674320443475, 37.60460349956747], [-122.4068072641993, 37.604571517613955], [-122.40679588348895, 37.60454377129952], [-122.4067146427698, 37.604547977766686], [-122.40670348200653, 37.604492543439115], [-122.40663417181429, 37.604455276163606], [-122.40666379634807, 37.60437697262885], [-122.40655318780888, 37.604427179848976], [-122.4065944496244, 37.604344319997814], [-122.40657752536725, 37.604284241824935], [-122.40646750356257, 37.60426061428779], [-122.40646812687929, 37.60418216494153], [-122.40635814193288, 37.60415392263617], [-122.40627201829864, 37.60404273294116], [-122.40612183544584, 37.60396352480548], [-122.40609907472364, 37.60390803204346], [-122.40612851616108, 37.60385280197593], [-122.40601342876738, 37.60373685148422], [-122.40597950808852, 37.60362592430195], [-122.40601434609273, 37.60362148479741], [-122.40618739890401, 37.603742341816165], [-122.40619268558268, 37.603806976346235], [-122.40626203163188, 37.60383962921056], [-122.4062846457491, 37.603913580612755], [-122.40637208942188, 37.60385864226749], [-122.40626291189905, 37.60372887718821], [-122.4062864795686, 37.60368284723241], [-122.40643622203378, 37.60381743117189], [-122.40658662488114, 37.60386895090301], [-122.40664396748308, 37.603952306559535], [-122.40664892468124, 37.60405847307985], [-122.40683886732336, 37.60424402198458], [-122.40698941784453, 37.60427708253725], [-122.40704679783587, 37.604355823330984], [-122.407104983732, 37.6043330414045], [-122.40724962442427, 37.60437991649101], [-122.40733104799813, 37.60435263631343], [-122.40735402943689, 37.60438044083442], [-122.4073248083664, 37.60440798320078], [-122.40746346603775, 37.60447790223787], [-122.40751056375792, 37.604390456512725], [-122.4074589835219, 37.604311745063114], [-122.40740116382973, 37.60428838048392], [-122.40741915035585, 37.60421463316719], [-122.40736716762514, 37.60418668302764], [-122.40730872562565, 37.60424176776252], [-122.40727414371474, 37.604213904970244], [-122.40726881945952, 37.604153885153025], [-122.40734429607448, 37.60414503450412], [-122.40731558767891, 37.60410797151513], [-122.40735644575507, 37.60407587273559], [-122.4073277007672, 37.60404342441761], [-122.40721217177452, 37.60398285109986], [-122.40713753766053, 37.60388556429696], [-122.40693452926904, 37.60388454429447], [-122.40676235443223, 37.60365293632729], [-122.40677428468905, 37.60361146262587], [-122.40672222932187, 37.6035927415413], [-122.40666488690272, 37.603509385919345], [-122.40667094367824, 37.603477112402956], [-122.40658974077128, 37.60347670412658], [-122.40651492466165, 37.603402490273496], [-122.40642795830352, 37.60339743805006], [-122.40636496285028, 37.603295594438805], [-122.40638853031695, 37.60324956445756], [-122.40625523598784, 37.60323504936845], [-122.40624994928883, 37.60317041483482], [-122.40602473281456, 37.60304468052136], [-122.40605410057859, 37.60299867979796], [-122.40596203176675, 37.60290591935184], [-122.40589793638524, 37.60294251553258], [-122.40586915576425, 37.60291468153017], [-122.40573582543146, 37.60290478052741], [-122.40568971782949, 37.60286762952622], [-122.40560858903339, 37.60285799124478], [-122.40557415527317, 37.60281166928755], [-122.40552749698092, 37.60284373824001], [-122.40555044056642, 37.60287615777735], [-122.40563164280532, 37.60287656676329], [-122.40562547548569, 37.60292268422944], [-122.40571794771083, 37.60296468358908], [-122.40560671645734, 37.603093339296656], [-122.40572242631262, 37.6031308408341], [-122.40580818103871, 37.60328817760765], [-122.40588362023755, 37.60328394255333], [-122.40594701868558, 37.60333502507174], [-122.40591721033755, 37.60343640177542], [-122.40584180768955, 37.60343602218228], [-122.40578934891113, 37.60346806203105], [-122.40572598717083, 37.603412364761624], [-122.40576119217178, 37.6033617786561], [-122.40574401183399, 37.603334003034085], [-122.40566313952408, 37.60329206211405], [-122.4056165544009, 37.60331490176201], [-122.40551813471988, 37.6032913317747], [-122.40549511757439, 37.60326814156711], [-122.40551857539677, 37.60323595576611], [-122.40541446585391, 37.60319851247383], [-122.40538065649451, 37.60307374111675], [-122.40540411430375, 37.60304155533735], [-122.40536953366036, 37.603013691992096], [-122.40531178910572, 37.602981097063335], [-122.4052183985625, 37.60305446407087], [-122.4051141791822, 37.603030864517784], [-122.40506109561443, 37.603141353386235], [-122.4051709315908, 37.60318805555698], [-122.40515301660184, 37.60325257319285], [-122.40543487524283, 37.60354934406957], [-122.40542867101168, 37.603600076185735], [-122.40549816342924, 37.60361427082734], [-122.4056879552201, 37.60381828023257], [-122.4057510970149, 37.60390166552383], [-122.40570421783558, 37.6039614225372], [-122.40581383518608, 37.60403581211884], [-122.40581346812722, 37.6040819587889], [-122.40596945114423, 37.604161196510354], [-122.40604419407327, 37.6042446400357], [-122.40602073615334, 37.60427682593493], [-122.40610186654492, 37.60428646394433], [-122.40607833525652, 37.60432787918894], [-122.40612437057116, 37.6043742593725], [-122.40618843039827, 37.60434227775424], [-122.40626923078067, 37.60439344765331], [-122.40629771870255, 37.60445819889423], [-122.40648296112737, 37.60450527916751], [-122.40659232344453, 37.60461197070302], [-122.40665609004348, 37.604616906170385], [-122.40665565018789, 37.60467228217741], [-122.40684074680166, 37.60473782056295]]]}}, {"type": "Feature", "properties": {"category": "fairway", "source": "aerial"}, "geometry": {"type": "Polygon", "coordinates": [[[-122.40995163439614, 37.60304130488272], [-122.41019640773033, 37.6028948531044], [-122.41010455249275, 37.6027744078163], [-122.41004096942744, 37.60274640086436], [-122.4100354972631, 37.60270483982553], [-122.40998347813459, 37.602681505503476], [-122.40991938488793, 37.60271810388806], [-122.40986747514823, 37.602680925500714], [-122.40971014185362, 37.60277243574224], [-122.40995163439614, 37.60304130488272]]]}}, {"type": "Feature", "properties": {"category": "fairway", "source": "aerial"}, "geometry": {"type": "Polygon", "coordinates": [[[-122.40864286865741, 37.60350546921228], [-122.40864374538434, 37.60339471713591], [-122.40844172492199, 37.603269103651634], [-122.40841877995577, 37.60323668466688], [-122.4084428211933, 37.603130663555305], [-122.40833312941025, 37.6030655057331], [-122.40833342180152, 37.60302858837385], [-122.40815427447058, 37.602944622743614], [-122.40807307212059, 37.602944215492705], [-122.4080270730228, 37.60289322138556], [-122.4079690348141, 37.60289754510528], [-122.40795787334852, 37.60284211087508], [-122.40806231279072, 37.602838019903984], [-122.40800456717821, 37.602805426283034], [-122.40801076958854, 37.6027546940092], [-122.40790614738607, 37.60278185828452], [-122.40777923904984, 37.60269353930375], [-122.40771558376841, 37.602674760445964], [-122.40765163579526, 37.60269289891109], [-122.40754796507366, 37.60260008145953], [-122.40747238023997, 37.602622776263054], [-122.40734598521925, 37.602469851446976], [-122.40719536492885, 37.60244602070756], [-122.4071091687279, 37.60234406093649], [-122.40709143874501, 37.60238550554488], [-122.4070391277509, 37.60239908728834], [-122.4069585487702, 37.602320229897124], [-122.40684841980556, 37.602310446738706], [-122.40686541713261, 37.602361295552384], [-122.40680682964314, 37.60243483874125], [-122.40690495552943, 37.602495325004384], [-122.40706155908892, 37.602496111908884], [-122.40717110243732, 37.60257972957998], [-122.40728717843587, 37.602571082892844], [-122.40730997626133, 37.602621960772936], [-122.40734488694152, 37.602608291531354], [-122.40738515846618, 37.60265002743776], [-122.40744315990896, 37.60265031867311], [-122.40743692051933, 37.60270566558423], [-122.40750035615527, 37.60275213260857], [-122.40754125000088, 37.60271541908124], [-122.40758761460242, 37.60272026668032], [-122.40765072102899, 37.60280826565031], [-122.40772043267053, 37.6027947709652], [-122.40778974188369, 37.602832037604706], [-122.40771973752682, 37.6028824496868], [-122.40774224305791, 37.60297024483985], [-122.40783996803631, 37.60308149169651], [-122.40774709201568, 37.60309025535252], [-122.40783934618487, 37.60315994107693], [-122.40784485373524, 37.60319688753492], [-122.40789147469123, 37.603169432331036], [-122.40786269323463, 37.603141598808804], [-122.40789187703068, 37.60311867096696], [-122.4081865895366, 37.60325859480508], [-122.40820949785119, 37.603295628503666], [-122.4082790270893, 37.60330520684093], [-122.40830189891268, 37.60334685519145], [-122.40847561257117, 37.60338464483228], [-122.40856177529682, 37.60349121828317], [-122.40859672269448, 37.60347293400503], [-122.40864286865741, 37.60350546921228]]]}}, {"type": "Feature", "properties": {"category": "fairway", "source": "aerial"}, "geometry": {"type": "Polygon", "coordinates": [[[-122.40886215063084, 37.60291586658676], [-122.40892613502253, 37.602893112794995], [-122.40904312394848, 37.602769097617774], [-122.40902043441267, 37.60270437605115], [-122.40888188807259, 37.602620614825945], [-122.40793377333982, 37.602223599610305], [-122.40790437046371, 37.60227421549006], [-122.40785789638463, 37.60228321202758], [-122.40784669850943, 37.60223239245273], [-122.40777724349117, 37.602213584527775], [-122.40778909978258, 37.602181340047196], [-122.40773719148504, 37.60214416073161], [-122.40768491736186, 37.60215312809426], [-122.40767295126457, 37.60219921657424], [-122.40755687588397, 37.60220786364663], [-122.40746458654371, 37.602142792372334], [-122.40736543564803, 37.60221151732552], [-122.40729609060962, 37.60217886510933], [-122.40732549385744, 37.602128249383505], [-122.40727362244303, 37.60208645519617], [-122.40726249822117, 37.602026406228205], [-122.40718684064916, 37.60205833019472], [-122.40716276137802, 37.60216896572703], [-122.40724374318162, 37.60219706161519], [-122.40727230436616, 37.60225258330569], [-122.4075555584312, 37.60237399176126], [-122.40760199600854, 37.60236961001355], [-122.40761914023165, 37.60240200004343], [-122.40800066861111, 37.602565434352876], [-122.40807548538226, 37.602639647279965], [-122.40812783292418, 37.602621450407426], [-122.40822625257807, 37.6026450182205], [-122.40831347404749, 37.602617766421474], [-122.40835947317521, 37.60266876041959], [-122.40848671101536, 37.60271554674972], [-122.40846890862271, 37.602766220908705], [-122.40851505409685, 37.60279875616564], [-122.40856732857814, 37.60278978843927], [-122.40861905508316, 37.602850040744514], [-122.40865396563616, 37.60283637111509], [-122.408728965951, 37.60288751028065], [-122.40877554987077, 37.60286466939209], [-122.40886215063084, 37.60291586658676]]]}}, {"type": "Feature", "properties": {"category": "fairway", "source": "aerial"}, "geometry": {"type": "Polygon", "coordinates": [[[-122.40915989350081, 37.602672770344086], [-122.40913125775265, 37.602626478442915], [-122.40857065314783, 37.60236985342659], [-122.40730985086594, 37.601906657846364], [-122.40724594007183, 37.60192018142886], [-122.40733833877383, 37.6019714088629], [-122.40729153531164, 37.6020219372077], [-122.40739630308389, 37.60197631478679], [-122.40790543111733, 37.60214039005406], [-122.40847216066398, 37.60235551524294], [-122.40915989350081, 37.602672770344086]]]}}, {"type": "Feature", "properties": {"category": "fairway", "source": "aerial"}, "geometry": {"type": "Polygon", "coordinates": [[[-122.40946777556726, 37.6026143182197], [-122.4094795947197, 37.602586688237054], [-122.40912097145089, 37.60246029220963], [-122.40904057271003, 37.60235836286636], [-122.40907551945872, 37.602340078437436], [-122.40912166493949, 37.602372613459536], [-122.40916263077906, 37.60232667001719], [-122.40923179432181, 37.602382394499806], [-122.40927859671103, 37.60233186537936], [-122.40941203598952, 37.60232791836173], [-122.40947032902514, 37.60229129122744], [-122.40956831102382, 37.60237023397996], [-122.4096733696453, 37.60228769216005], [-122.40971378816181, 37.602310968597166], [-122.4096961690182, 37.602338569594636], [-122.40976551527184, 37.60237122040981], [-122.4098296082929, 37.60233462210475], [-122.4099805572606, 37.60231691744126], [-122.41006128522065, 37.60237731410865], [-122.41007901355988, 37.60233586904005], [-122.41020708987922, 37.60227651606655], [-122.41030540048095, 37.60231392616505], [-122.41035191072056, 37.60230031398925], [-122.41036318315794, 37.602341903996034], [-122.41050847755518, 37.60230571098884], [-122.41062426153374, 37.60233397839096], [-122.41089186778218, 37.60223378770772], [-122.41081697580172, 37.60216880588613], [-122.41077637502865, 37.60216860318721], [-122.41061922595195, 37.60223704130474], [-122.41042782214303, 37.60223608527965], [-122.41034727615111, 37.60215261549896], [-122.41013281788044, 37.602133084390026], [-122.41004614425364, 37.602091117465505], [-122.40995414444134, 37.601989130742865], [-122.4098789254592, 37.601965680381014], [-122.40964090282341, 37.601992179092136], [-122.40955904499376, 37.60207483696377], [-122.40936738625064, 37.602106181923446], [-122.40928625777178, 37.602096546171964], [-122.40925754918, 37.60205948364107], [-122.40907763656823, 37.60207242750872], [-122.40900829089624, 37.60203977629259], [-122.40886894247521, 37.602057537819995], [-122.40880532397018, 37.60203414487915], [-122.40879985254092, 37.60199258378429], [-122.4087472864695, 37.60203846898828], [-122.40869541431292, 37.60199667541904], [-122.40860224748653, 37.60204235712964], [-122.40856076999249, 37.60215290576958], [-122.40860111502244, 37.60218541192634], [-122.40866546413514, 37.602116511559714], [-122.40876986601134, 37.60211703462399], [-122.4088042649326, 37.60216797033932], [-122.40876898951177, 37.60222778672693], [-122.40878606117161, 37.60226940593387], [-122.4087511143865, 37.60228769027697], [-122.40871678849595, 37.602227525205286], [-122.40863536774206, 37.60225480637271], [-122.40853122142524, 37.60222198049289], [-122.40850254970046, 37.60218030311115], [-122.40840963832932, 37.60219368197076], [-122.40807414606378, 37.60207662842096], [-122.40804558434618, 37.60202110691838], [-122.40798743710988, 37.602039274664854], [-122.40792987500551, 37.601983607656415], [-122.40811062848613, 37.60186452811427], [-122.4083485781233, 37.60184726183185], [-122.40839633089136, 37.60167675161374], [-122.40835602276888, 37.601639630716214], [-122.40832694934004, 37.60164871467172], [-122.40834949178027, 37.601731895059224], [-122.40830816028738, 37.60182398493109], [-122.40807035697041, 37.60182279245006], [-122.40793607739081, 37.60193287537931], [-122.40755382045928, 37.60186173427667], [-122.40745565826427, 37.601805863219326], [-122.40742651145736, 37.601824176291515], [-122.40749567323122, 37.60187990178137], [-122.4078431296548, 37.60195086846562], [-122.4079814175965, 37.60206693359211], [-122.40809125386437, 37.60211363305546], [-122.408918770122, 37.602357752891784], [-122.40917846182114, 37.60252518798531], [-122.40946777556726, 37.6026143182197]]]}}, {"type": "Feature", "properties": {"category": "fairway", "source": "aerial"}, "geometry": {"type": "Polygon", "coordinates": [[[-122.41193430232812, 37.601703663458736], [-122.41200419379803, 37.601667092855365], [-122.41206777670023, 37.60169509875314], [-122.41211443149538, 37.60166302717887], [-122.41215495938141, 37.601672458763524], [-122.41227748699184, 37.601580771902945], [-122.41207437572737, 37.60159360481668], [-122.41209844754114, 37.60148296820845], [-122.41202319205627, 37.601464133884136], [-122.41164586128752, 37.601503787090444], [-122.41157636961137, 37.60148959607058], [-122.41140780434779, 37.60153490405873], [-122.41143644110464, 37.60158119542443], [-122.41148860534233, 37.601586070413056], [-122.41145358682137, 37.601613584914105], [-122.41147051443302, 37.60167366244287], [-122.41151713311753, 37.60164620578031], [-122.41156324290223, 37.601683354530536], [-122.4116792080346, 37.60168854752732], [-122.41170853545269, 37.60164716002614], [-122.41177208189038, 37.601679780756065], [-122.41184773715666, 37.60164785382815], [-122.41193430232812, 37.601703663458736]]]}}, {"type": "Feature", "properties": {"category": "fairway", "source": "aerial"}, "geometry": {"type": "Polygon", "coordinates": [[[-122.41044839077024, 37.60183469569996], [-122.41055877441966, 37.6018121727888], [-122.41059386617594, 37.60177542921218], [-122.4108897066405, 37.60177229147018], [-122.41100621758679, 37.601708265032215], [-122.41096010806677, 37.60167111606671], [-122.41101270891222, 37.601620615187294], [-122.41115031013236, 37.601824355434275], [-122.41121451112006, 37.60177391234419], [-122.41120900199657, 37.60173696602136], [-122.41133123996656, 37.60168219754248], [-122.41125072991272, 37.60159411369361], [-122.41139044052031, 37.60153020260418], [-122.41132689437836, 37.601497581670415], [-122.41120465670912, 37.60155235014903], [-122.4109669632853, 37.601537319491584], [-122.4109722903557, 37.60159733919207], [-122.41091439885615, 37.60158320567836], [-122.41082112470215, 37.60164273317903], [-122.41078081538188, 37.60160561309945], [-122.41078143410982, 37.6015271636567], [-122.4106192144443, 37.60150327937495], [-122.41061385125755, 37.60144787433309], [-122.41054965015174, 37.601498317098134], [-122.41048639572047, 37.60142877833118], [-122.41043401316162, 37.60145159093842], [-122.41037050393152, 37.601414354820434], [-122.41026610300715, 37.601413833180324], [-122.410214376143, 37.60135358157955], [-122.41017359365227, 37.60137645204083], [-122.41016742926963, 37.60142256978083], [-122.41020204742416, 37.6014458170639], [-122.4101784100152, 37.601501077190775], [-122.41009173709087, 37.60145911030125], [-122.41005110026808, 37.60146352202865], [-122.4100158990667, 37.60151410946232], [-122.4097313315898, 37.601558835091], [-122.40967365914767, 37.60151701293742], [-122.40952282115163, 37.60152087320758], [-122.40945861925368, 37.6015713153717], [-122.40905801342544, 37.601620073538726], [-122.40905177532733, 37.601675420555715], [-122.4089470454801, 37.601716429789306], [-122.40897002672673, 37.60174423400622], [-122.40903977364842, 37.60172612385737], [-122.40907395356935, 37.60180474752647], [-122.40912112068258, 37.60170807174561], [-122.40917324834874, 37.60171756242866], [-122.40916124674493, 37.60176826574293], [-122.40919010115599, 37.60178686961134], [-122.40934130455041, 37.60173686305375], [-122.4093990499352, 37.601769456024456], [-122.40961357988992, 37.601779759113626], [-122.40962547178721, 37.60174289976688], [-122.40949797953948, 37.601728417368264], [-122.40948083464876, 37.60169602760206], [-122.40960263617029, 37.6016966369875], [-122.40965545673582, 37.60161844868856], [-122.40971936685233, 37.60160492379462], [-122.40974822134169, 37.601623527527714], [-122.40972465646259, 37.601669558214425], [-122.40985827680514, 37.60164253732043], [-122.40990518765344, 37.60157816392064], [-122.40995720599334, 37.60160149827483], [-122.41017771778856, 37.60158875597054], [-122.41021211743679, 37.60163969128613], [-122.41024739142387, 37.60157987444908], [-122.41034588324763, 37.601594211147265], [-122.41035802970693, 37.60152504901288], [-122.41044550402138, 37.60146549290526], [-122.41048588592666, 37.60149338375236], [-122.41047392166473, 37.60153947253703], [-122.41040986606077, 37.60157145653256], [-122.4104151926853, 37.60163147625408], [-122.41037422799722, 37.60167742014635], [-122.41041439147743, 37.601732999053674], [-122.41039079055143, 37.60178364454834], [-122.41044839077024, 37.60183469569996]]]}}]}