{"type": "FeatureCollection", "features": [{"type": "Feature", "properties": {"category": "water", "kind": "pond"}, "geometry": {"type": "Polygon", "coordinates": [[[-122.4082973, 37.6017962], [-122.4082832, 37.6018036], [-122.4082637, 37.6018068], [-122.4082316, 37.6018057], [-122.408196, 37.6018036], [-122.4081464, 37.6018057], [-122.4081068, 37.60181], [-122.4080525, 37.6018233], [-122.4080297, 37.6018387], [-122.4080089, 37.6018557], [-122.4079829, 37.6018765], [-122.4079452, 37.6018934], [-122.4079074, 37.601889], [-122.4078654, 37.6018812], [-122.4078212, 37.6018689], [-122.4077809, 37.6018652], [-122.4077441, 37.6018689], [-122.4076991, 37.6018647], [-122.4076609, 37.6018503], [-122.4076401, 37.6018275], [-122.4076421, 37.60181], [-122.4076495, 37.601785], [-122.407671, 37.6017744], [-122.4076918, 37.6017627], [-122.4077354, 37.6017547], [-122.4077728, 37.6017501], [-122.4078044, 37.6017462], [-122.4078426, 37.6017404], [-122.4078721, 37.6017313], [-122.407903, 37.6017212], [-122.4079218, 37.6017127], [-122.4079412, 37.6017016], [-122.4079674, 37.601692], [-122.4079928, 37.6016851], [-122.4080337, 37.6016782], [-122.4080633, 37.6016729], [-122.4080948, 37.6016644], [-122.4081202, 37.6016607], [-122.4081705, 37.6016554], [-122.4081947, 37.6016559], [-122.4082215, 37.6016564], [-122.408243, 37.6016564], [-122.4082631, 37.6016596], [-122.4082745, 37.6016681], [-122.4082859, 37.601683], [-122.4083, 37.6016947], [-122.408304, 37.6017042], [-122.4083026, 37.6017175], [-122.4083006, 37.6017313], [-122.4083026, 37.6017436], [-122.408308, 37.6017526], [-122.4083127, 37.6017664], [-122.408316, 37.6017776], [-122.408308, 37.6017908], [-122.4082973, 37.6017962]]]}}, {"type": "Feature", "properties": {"category": "water", "kind": "pond"}, "geometry": {"type": "Polygon", "coordinates": [[[-122.4085568, 37.6020323], [-122.408544, 37.6020472], [-122.4085172, 37.6020695], [-122.4085031, 37.6020785], [-122.4084891, 37.6020876], [-122.4084549, 37.6021104], [-122.4084354, 37.6021237], [-122.4084133, 37.6021327], [-122.4083932, 37.6021348], [-122.408361, 37.6021301], [-122.4083355, 37.6021216], [-122.4083154, 37.6021131], [-122.4082933, 37.6021024], [-122.4082698, 37.6020897], [-122.4082624, 37.6020865], [-122.4082342, 37.6020753], [-122.4082094, 37.6020647], [-122.4081853, 37.6020536], [-122.4081605, 37.602044], [-122.4081256, 37.6020371], [-122.4080948, 37.6020296], [-122.4080619, 37.6020217], [-122.4080398, 37.6020121], [-122.4080277, 37.6020004], [-122.408017, 37.6019861], [-122.4080156, 37.6019744], [-122.4080217, 37.6019622], [-122.4080284, 37.6019515], [-122.4080371, 37.601942], [-122.4080519, 37.6019303], [-122.4080653, 37.6019207], [-122.408082, 37.6019096], [-122.4080981, 37.6019037], [-122.4081263, 37.6018974], [-122.4081504, 37.6018963], [-122.4081665, 37.6018968], [-122.4081853, 37.6018974], [-122.4082114, 37.6019032], [-122.4082349, 37.601909], [-122.4082611, 37.6019138], [-122.4082879, 37.6019181], [-122.4083087, 37.6019197], [-122.4083429, 37.6019213], [-122.4083831, 37.6019218], [-122.4084193, 37.6019255], [-122.4084508, 37.6019292], [-122.4085025, 37.6019399], [-122.408532, 37.6019473], [-122.408546, 37.6019611], [-122.4085548, 37.6019728], [-122.4085608, 37.601984], [-122.4085662, 37.6019967], [-122.4085628, 37.6020158], [-122.4085568, 37.6020323]]]}}, {"type": "Feature", "properties": {"category": "water", "kind": "creek"}, "geometry": {"type": "Polygon", "coordinates": [[[-122.4119346876602, 37.60083144152471], [-122.41182088767384, 37.60095524154225], [-122.4118196496319, 37.60095647168285], [-122.41181828128417, 37.600957611091395], [-122.41181679308863, 37.600958651059734], [-122.41165649307743, 37.60106115107867], [-122.41165468265356, 37.60106219602153], [-122.41165275155763, 37.60106309384992], [-122.41165071860866, 37.60106383581429], [-122.41164860361818, 37.601064414684], [-122.41142470357032, 37.6011160146954], [-122.41142288749775, 37.60111636930455], [-122.41142104085671, 37.60111660355196], [-122.410793440708, 37.601175203564566], [-122.4107907923857, 37.601175326421924], [-122.4104198843102, 37.60117522666246], [-122.40997575369387, 37.60120297239547], [-122.40956188886146, 37.60127593124873], [-122.409071056283, 37.60137693506198], [-122.40888453913814, 37.601416517478654], [-122.40888211833071, 37.60141692007055], [-122.40875611830126, 37.601432220073896], [-122.40875441406888, 37.60143237475759], [-122.40875270001222, 37.601432426418], [-122.40865119998773, 37.601432426417794], [-122.40864993877602, 37.60143239846662], [-122.40854868407897, 37.60142790693801], [-122.40843440285138, 37.601442548626444], [-122.40834456402678, 37.60147887055971], [-122.40834289351469, 37.601479479452344], [-122.40834116648153, 37.601479978641386], [-122.40824196646086, 37.60150507864691], [-122.40824193294698, 37.601505087103945], [-122.40816846312522, 37.601523576846844], [-122.40753479876535, 37.601771476085545], [-122.40709909311329, 37.601941986963496], [-122.40702409058503, 37.60197896273573], [-122.40691729692874, 37.602069785465595], [-122.40687650980715, 37.60213275000577], [-122.40681637811898, 37.60222874099752], [-122.4068152511074, 37.60223033258573], [-122.40676535111685, 37.60229313259379], [-122.40676405392242, 37.60229459832811], [-122.40676258016497, 37.60229595430766], [-122.406760944419, 37.60229718712275], [-122.40665374441345, 37.602370287135926], [-122.40665169471782, 37.602371531144], [-122.40664948067057, 37.60237258184674], [-122.40655818065613, 37.60241048185463], [-122.40655617332266, 37.60241121835989], [-122.40655408533559, 37.60241179573098], [-122.40648048531989, 37.60242899573476], [-122.40647831980593, 37.60242941100563], [-122.40647611350448, 37.602429655086844], [-122.40647388774104, 37.60242972561922], [-122.40647166402924, 37.60242962192101], [-122.40641006401466, 37.60242432191964], [-122.4064082760025, 37.60242411037297], [-122.40640651487789, 37.60242378609207], [-122.40633951486359, 37.60240918608857], [-122.40633727923417, 37.60240859798837], [-122.40633513239321, 37.602407828461345], [-122.40633309752776, 37.60240688581877], [-122.4063311966154, 37.60240578024169], [-122.40632945018689, 37.602404523670906], [-122.40632787710459, 37.602403129677995], [-122.40628085443372, 37.602356830426025], [-122.40621999624423, 37.60234607096578], [-122.40613746502179, 37.60235416226433], [-122.4061002146064, 37.60239990231804], [-122.40609906207851, 37.60240119004116], [-122.40609777218093, 37.60240239247549], [-122.405998872183, 37.60248679248921], [-122.40599739831279, 37.60248794071138], [-122.4059957992945, 37.602488977525155], [-122.40599408838217, 37.602489894336536], [-122.40599227975738, 37.602490683546165], [-122.40587417973767, 37.60253678355586], [-122.40587198506016, 37.6025375288795], [-122.40586970402903, 37.60253808642441], [-122.40579040401153, 37.6025538864279], [-122.40578844198538, 37.602554204774066], [-122.40578645229368, 37.602554384051615], [-122.4056473522603, 37.602561984053146], [-122.405545332034, 37.60256748515078], [-122.40554454974517, 37.60256751653581], [-122.40544204972045, 37.602570216536236], [-122.40544141473113, 37.602570212491294], [-122.4054414148183, 37.60257022617627], [-122.40494511469855, 37.602572226175724], [-122.40486333764686, 37.60257251244826], [-122.40449439761592, 37.60267918680289], [-122.40273245106513, 37.60368992208122], [-122.4027306139871, 37.60369087198477], [-122.40272867017956, 37.60369167627836], [-122.40272663781855, 37.603692327441266], [-122.40272453590825, 37.6036928193846], [-122.40272238410311, 37.603693147508324], [-122.40272020252415, 37.60369330874423], [-122.40271801157084, 37.60369330158464], [-122.40271583173023, 37.60369312609648], [-122.40271368338557, 37.603692783920714], [-122.40271158662546, 37.603692278256965], [-122.40270956105623, 37.60369161383355], [-122.40270762561855, 37.60369079686336], [-122.4027057984102, 37.60368983498566], [-122.40270409651698, 37.60368873719479], [-122.4027025358529, 37.603687513755894], [-122.40270113101134, 37.6036861761091], [-122.40250911318186, 37.6034842488853], [-122.39913800695689, 37.60542488618078], [-122.3992841573804, 37.605593920959336], [-122.39936621841396, 37.60565103231005], [-122.39936782164911, 37.60565226395757], [-122.3993692650391, 37.605653614954974], [-122.39937053461934, 37.60565507223153], [-122.39937161810673, 37.60565662168823], [-122.39937250501866, 37.605658248334265], [-122.39937318677431, 37.60565993643201], [-122.39937365677781, 37.60566166964931], [-122.39937391048186, 37.60566343121743], [-122.39937394543188, 37.60566520409344], [-122.39937376128977, 37.60566697112493], [-122.39937335983703, 37.60566871521606], [-122.39937274495765, 37.60567041949292], [-122.39937192260055, 37.60567206746682], [-122.39937090072189, 37.60567364319376], [-122.39936968920826, 37.605675131428775], [-122.39936829978093, 37.60567651777334], [-122.39936674588242, 37.60567778881469], [-122.39936504254656, 37.605678932255636], [-122.39856850111515, 37.60616235136319], [-122.39971722903245, 37.60732757518417], [-122.3997185255434, 37.60732903371395], [-122.39971963423007, 37.6073305871725], [-122.39972054420441, 37.60733222030391], [-122.39972124652996, 37.60733391706985], [-122.39972173430945, 37.607335660807095], [-122.39972200275257, 37.607337434391056], [-122.39972204922302, 37.60733922040408], [-122.39972187326443, 37.60734100130644], [-122.39972147660478, 37.607342759608606], [-122.39972086313952, 37.607344478042975], [-122.39972003889324, 37.607346139733494], [-122.39971901196049, 37.60734772836135], [-122.39971779242639, 37.60734922832526], [-122.39971639226749, 37.60735062489465], [-122.39971482523418, 37.60735190435436], [-122.39971310671568, 37.60735305413935], [-122.39971125358888, 37.60735406295799], [-122.39874018014424, 37.6078282710356], [-122.39676366411831, 37.60926152260012], [-122.39676364080556, 37.609261539481004], [-122.39617284078513, 37.60968873955618], [-122.39617078331592, 37.60969006136482], [-122.39419858312081, 37.61081236158073], [-122.39417221688434, 37.6107830384178], [-122.3961433393925, 37.60966135169843], [-122.39673314753573, 37.60923486895133], [-122.39871123582046, 37.60780047765006], [-122.39871288065657, 37.6077993932732], [-122.39871464654335, 37.607798436945416], [-122.39966588585699, 37.60733391477852], [-122.39851867107542, 37.60617022464053], [-122.39851737613282, 37.60616876800714], [-122.39851626852342, 37.60616721666812], [-122.39851535909709, 37.60616558582004], [-122.39851465676237, 37.60616389143832], [-122.39851416839917, 37.606162150120774], [-122.39851389879136, 37.60616037892494], [-122.39851385057996, 37.60615859520108], [-122.39851402423717, 37.60615681642211], [-122.3985144180619, 37.60615506001259], [-122.39851502819633, 37.6061533431779], [-122.39851584866372, 37.606151682735764], [-122.39851687142688, 37.60615009495151], [-122.3985180864671, 37.60614859537869], [-122.39851948188209, 37.60614719870679], [-122.39852104400266, 37.60614591861729], [-122.39852275752665, 37.60614476764964], [-122.3993155150468, 37.60566364538554], [-122.39925218157732, 37.60561956767744], [-122.39925081622711, 37.60561853463296], [-122.3992495634832, 37.60561741490843], [-122.39924843200863, 37.60561621624704], [-122.39908813203375, 37.6054308162222], [-122.3990869795872, 37.605429334763265], [-122.39908601228328, 37.60542777171286], [-122.3990852391576, 37.60542614167146], [-122.39908466743191, 37.605424459865276], [-122.3990843024467, 37.605422742004095], [-122.39908414761129, 37.60542100413446], [-122.39908420437195, 37.60541926248982], [-122.3990844721985, 37.605417533338894], [-122.39908494858915, 37.605415832833685], [-122.39908562909389, 37.60541417685861], [-122.39908650735615, 37.60541258088215], [-122.39908757517205, 37.605411059812326], [-122.3990888225671, 37.60540962785746], [-122.39909023788937, 37.605408298393414], [-122.39909180791835, 37.60540708383875], [-122.39909351798836, 37.60540599553862], [-122.40250051766057, 37.60344469591449], [-122.4025023547808, 37.60344374254884], [-122.4025042991585, 37.60344293497803], [-122.40250633257219, 37.60344228077009], [-122.40250843596594, 37.603441786055846], [-122.40251058962812, 37.6034414554715], [-122.40251277337589, 37.60344129211503], [-122.40251496674455, 37.60344129751735], [-122.40251714917919, 37.6034414716278], [-122.40251930022742, 37.603441812814744], [-122.40252139973093, 37.6034423178808], [-122.40252342801449, 37.60344298209278], [-122.4025253660703, 37.60344379922611], [-122.40252719573608, 37.60344476162314], [-122.40252889986535, 37.603445860264856], [-122.40253046248802, 37.60344708485548], [-122.40253186896021, 37.60344842391893], [-122.40272390959396, 37.603650375117915], [-122.40445239092247, 37.60265883721357], [-122.40154980507184, 37.59933415882494], [-122.39881819186422, 37.60064355724498], [-122.39578633164885, 37.60238254629725], [-122.39386489491044, 37.60361135016316], [-122.3938630466148, 37.60361241486333], [-122.39386107308701, 37.603613326252926], [-122.3938589943446, 37.60361407508771], [-122.39385683147233, 37.60361465377223], [-122.39385460640831, 37.60361505643684], [-122.39385234172146, 37.60361527899732], [-122.39385006038253, 37.60361531919622], [-122.39384778553128, 37.603615176625816], [-122.3938455402416, 37.603614852732186], [-122.39384334728757, 37.60361435080059], [-122.39384122891235, 37.60361367592217], [-122.39383920660273, 37.60361283494222], [-122.39383730087111, 37.603611836390826], [-122.39347066274259, 37.60339791590144], [-122.39131828654476, 37.60460951562978], [-122.39131638132925, 37.604610478497875], [-122.39131436515429, 37.60461128577828], [-122.39131225802765, 37.60461192945988], [-122.39131008085971, 37.604612403155], [-122.39130785525589, 37.60461270216287], [-122.39130560330226, 37.60461282351621], [-122.3913033473464, 37.604612766010796], [-122.39130110977563, 37.60461253021727], [-122.39129891279472, 37.604612118475565], [-122.39129677820581, 37.604611534871665], [-122.39129472719172, 37.604610785197025], [-122.39129278010599, 37.60460987689116], [-122.39129095627077, 37.60460881896776], [-122.39128927378515, 37.60460762192528], [-122.3912877493455, 37.60460629764273], [-122.39036394941438, 37.603718797508414], [-122.39036353306983, 37.603718385358626], [-122.38980995494192, 37.603153611581384], [-122.38921894149024, 37.602588680942866], [-122.38805466761406, 37.60152317917494], [-122.3877048381951, 37.60121712834758], [-122.38773836179948, 37.601192871649964], [-122.38808836181275, 37.60149907160098], [-122.38808869870893, 37.60149937304325], [-122.38925329877316, 37.60256517287715], [-122.38925361425093, 37.60256546792907], [-122.38984501429384, 37.60313076784327], [-122.38984546686962, 37.60313121472093], [-122.39039906255184, 37.60369600613445], [-122.39130925645256, 37.60457043467701], [-122.39345781324072, 37.60336098460403], [-122.39345964719809, 37.603360053978285], [-122.39346158487199, 37.60335926756125], [-122.39346360840304, 37.603358632601335], [-122.39346569914038, 37.603358154950904], [-122.39346783781379, 37.603357839012446], [-122.39347000471125, 37.60335768769797], [-122.39347217986052, 37.60335770240211], [-122.3934743432134, 37.60335788298934], [-122.39347647483035, 37.603358227795226], [-122.39347855506433, 37.60335873364167], [-122.39348056474195, 37.60335939586633], [-122.39348248534007, 37.60336020836551], [-122.39348429915667, 37.60336116365044], [-122.39385006743649, 37.60357457665534], [-122.39575840496066, 37.602354150062304], [-122.39575935065014, 37.60235357708398], [-122.39879245035569, 37.600613877417736], [-122.39879400832822, 37.60061305920015], [-122.40154460795873, 37.59929455946609], [-122.401546611887, 37.59929370481724], [-122.40154871338497, 37.59929301427843], [-122.40155089128831, 37.599292494804104], [-122.40155312366312, 37.599292151625946], [-122.40155538802709, 37.599291988200136], [-122.4015576615756, 37.599292006172526], [-122.40155992141158, 37.59929220536211], [-122.40156214477607, 37.599292583762846], [-122.40156430927739, 37.59929313756384], [-122.4015663931167, 37.599293861187725], [-122.40156837530752, 37.59929474734681], [-122.40157023588705, 37.599295787116546], [-122.40157195611722, 37.59929697002533], [-122.40157351867352, 37.59929828415999], [-122.40157490781927, 37.5992997162858], [-122.40449235629828, 37.60264141729525], [-122.40485156118181, 37.602537557706604], [-122.40485341983411, 37.60253709125369], [-122.40485532199415, 37.60253675360935], [-122.40485725358772, 37.602536547271846], [-122.40485920032283, 37.602536473767856], [-122.40494489280094, 37.60253617379401], [-122.40536844432866, 37.602534467086954], [-122.40537190103942, 37.60252178294311], [-122.40544335676508, 37.602534109537956], [-122.40554265876989, 37.602531493776596], [-122.40564425784078, 37.602526015394936], [-122.40578134412925, 37.602518525418866], [-122.40585637152577, 37.60250357670697], [-122.40596857362999, 37.60245977893691], [-122.40606326897691, 37.60237896714714], [-122.40610518540625, 37.602327497685835], [-122.40610646840662, 37.60232607820739], [-122.40610791821263, 37.602324764295275], [-122.40610952118557, 37.60232356830978], [-122.40611126224587, 37.60232250150185], [-122.4061131250149, 37.602321573907226], [-122.40611509196916, 37.602320794252016], [-122.40611714460495, 37.602320169870644], [-122.40611926361265, 37.60231970663682], [-122.4061214290582, 37.60231940890831], [-122.40621832903528, 37.60230990891036], [-122.40622089945894, 37.60230977429605], [-122.40622347247485, 37.60230987268838], [-122.40622601482335, 37.602310202815495], [-122.40629841480721, 37.60232300281236], [-122.40630051378098, 37.60232345905612], [-122.40630254806759, 37.60232407338852], [-122.40630449890513, 37.602324840143666], [-122.40630634830126, 37.602325752249875], [-122.40630807919928, 37.60232680129489], [-122.40630967563534, 37.60232797760356], [-122.40631112288571, 37.60232927032691], [-122.40635853126412, 37.6023759493385], [-122.40641673748216, 37.602388633079734], [-122.40647204690302, 37.60239339184537], [-122.40653918616155, 37.60237770169197], [-122.40662622257612, 37.60234157157223], [-122.40672886914787, 37.6022715765782], [-122.40677633464519, 37.60221184045879], [-122.40683602190474, 37.602116559009396], [-122.40683616033527, 37.602116341716474], [-122.406878460348, 37.60205104172371], [-122.40687950000135, 37.60204960344548], [-122.40688070146174, 37.602048247312354], [-122.40688205455089, 37.60204698481289], [-122.40699305455307, 37.601952584828275], [-122.40699447875024, 37.6019514756922], [-122.4069960199402, 37.60195047041975], [-122.40699766619876, 37.60194957678869], [-122.40707616618865, 37.60191087679646], [-122.40708810000001, 37.6019262], [-122.40707809992185, 37.60191002442154], [-122.40751479984918, 37.601739124457474], [-122.40815000253349, 37.60149062341802], [-122.40816, 37.6015068], [-122.4081531670718, 37.60148961289148], [-122.40822825029524, 37.60147071711377], [-122.40832567813541, 37.60144606551424], [-122.40841703596257, 37.60140912944727], [-122.40841917765736, 37.60140837175662], [-122.40842140627839, 37.60140779416381], [-122.4084236979747, 37.60140740285033], [-122.40854389794667, 37.60139200285371], [-122.40854632277933, 37.60139179793175], [-122.40854876124818, 37.6013918015346], [-122.40865183110701, 37.60139637358242], [-122.40875098100561, 37.60139637358269], [-122.40887405743875, 37.60138142858675], [-122.40905946082388, 37.601342082529804], [-122.40905962678109, 37.60134204784547], [-122.40955092667336, 37.60124094786788], [-122.40955169885724, 37.60124080040254], [-122.40996749876363, 37.60116750041881], [-122.4099706265206, 37.601167128888356], [-122.41041722641366, 37.60113922889407], [-122.41041900770394, 37.60113917357879], [-122.41078947892592, 37.60113927322273], [-122.41141389716788, 37.6010809703087], [-122.41163164120788, 37.601030789014544], [-122.41178607693716, 37.6009320387917], [-122.41189743569188, 37.60081089458685], [-122.4123388559689, 37.60021198135001], [-122.41233890391887, 37.60021191660119], [-122.41240810393434, 37.60011891661261], [-122.41244709607051, 37.600137283384186], [-122.41237792014581, 37.60023025106085], [-122.41193594413689, 37.600829918719924], [-122.4119346876602, 37.60083144152471]]]}}]}